{
  "type": "FeatureCollection",
  "features": [
    {
      "type": "Feature",
      "properties": {
        "norad_id": 38709,
        "name": "EXACTVIEW-1 (ADS-1B)",
        "group": "resource",
        "lat": 71.93749823630468,
        "lon": -64.4318162631005,
        "alt_km": 801.5259911078438,
        "timestamp": "2025-12-04T09:47:37.179579+00:00",
        "meta_object_name": "EXACTVIEW-1 (ADS-1B)",
        "meta_object_id": "2012-039C",
        "meta_epoch": "2025-12-03T21:30:11.581632",
        "meta_mean_motion": 14.2490219,
        "meta_eccentricity": 0.0011127,
        "meta_inclination": 98.9636,
        "meta_ra_of_asc_node": 86.1007,
        "meta_arg_of_pericenter": 19.4867,
        "meta_mean_anomaly": 340.6735,
        "meta_ephemeris_type": 0,
        "meta_classification_type": "U",
        "meta_norad_cat_id": 38709,
        "meta_element_set_no": 999,
        "meta_rev_at_epoch": 69489,
        "meta_bstar": 0.00014941384,
        "meta_mean_motion_dot": 3.03e-06,
        "meta_mean_motion_ddot": 0,
        "tle_line1": "1 38709U 12039C   25337.89596738  .00000303  00000+0  14941-3 0  9994",
        "tle_line2": "2 38709  98.9636  86.1007 0011127  19.4867 340.6735 14.24902190694895"
      },
      "geometry": {
        "type": "Point",
        "coordinates": [
          -64.4318162631005,
          71.93749823630468
        ]
      }
    },
    {
      "type": "Feature",
      "properties": {
        "norad_id": 38755,
        "name": "SPOT 6",
        "group": "resource",
        "lat": -25.155261266893366,
        "lon": -140.51732130181898,
        "alt_km": 703.5388478209297,
        "timestamp": "2025-12-04T09:47:37.179590+00:00",
        "meta_object_name": "SPOT 6",
        "meta_object_id": "2012-047A",
        "meta_epoch": "2025-12-03T22:58:36.938208",
        "meta_mean_motion": 14.58590437,
        "meta_eccentricity": 0.00010489,
        "meta_inclination": 98.1584,
        "meta_ra_of_asc_node": 42.9031,
        "meta_arg_of_pericenter": 100.3897,
        "meta_mean_anomaly": 259.7421,
        "meta_ephemeris_type": 0,
        "meta_classification_type": "U",
        "meta_norad_cat_id": 38755,
        "meta_element_set_no": 999,
        "meta_rev_at_epoch": 70459,
        "meta_bstar": 0.00018853487,
        "meta_mean_motion_dot": 8.32e-06,
        "meta_mean_motion_ddot": 0,
        "tle_line1": "1 38755U 12047A   25337.95737197  .00000832  00000+0  18853-3 0  9990",
        "tle_line2": "2 38755  98.1584  42.9031 0001048 100.3897 259.7421 14.58590437704596"
      },
      "geometry": {
        "type": "Point",
        "coordinates": [
          -140.51732130181898,
          -25.155261266893366
        ]
      }
    },
    {
      "type": "Feature",
      "properties": {
        "norad_id": 39019,
        "name": "PLEIADES 1B",
        "group": "resource",
        "lat": 72.60936588327652,
        "lon": -101.46782477201135,
        "alt_km": 690.0700654097782,
        "timestamp": "2025-12-04T09:47:37.179600+00:00",
        "meta_object_name": "PLEIADES 1B",
        "meta_object_id": "2012-068A",
        "meta_epoch": "2025-12-04T04:22:22.897344",
        "meta_mean_motion": 14.58540106,
        "meta_eccentricity": 0.0001245,
        "meta_inclination": 98.1805,
        "meta_ra_of_asc_node": 50.9687,
        "meta_arg_of_pericenter": 87.4521,
        "meta_mean_anomaly": 272.6821,
        "meta_ephemeris_type": 0,
        "meta_classification_type": "U",
        "meta_norad_cat_id": 39019,
        "meta_element_set_no": 999,
        "meta_rev_at_epoch": 69242,
        "meta_bstar": 0.00019319,
        "meta_mean_motion_dot": 8.52e-06,
        "meta_mean_motion_ddot": 0,
        "tle_line1": "1 39019U 12068A   25338.18220946  .00000852  00000+0  19319-3 0  9992",
        "tle_line2": "2 39019  98.1805  50.9687 0001245  87.4521 272.6821 14.58540106692424"
      },
      "geometry": {
        "type": "Point",
        "coordinates": [
          -101.46782477201135,
          72.60936588327652
        ]
      }
    },
    {
      "type": "Feature",
      "properties": {
        "norad_id": 39030,
        "name": "GOKTURK 2",
        "group": "resource",
        "lat": 0.08091836641740659,
        "lon": 0.48200773921761486,
        "alt_km": 647.2344544664402,
        "timestamp": "2025-12-04T09:47:37.179610+00:00",
        "meta_object_name": "GOKTURK 2",
        "meta_object_id": "2012-073A",
        "meta_epoch": "2025-12-04T04:05:52.348128",
        "meta_mean_motion": 14.75273119,
        "meta_eccentricity": 8.1e-05,
        "meta_inclination": 97.6899,
        "meta_ra_of_asc_node": 180.2455,
        "meta_arg_of_pericenter": 96.4782,
        "meta_mean_anomaly": 263.652,
        "meta_ephemeris_type": 0,
        "meta_classification_type": "U",
        "meta_norad_cat_id": 39030,
        "meta_element_set_no": 999,
        "meta_rev_at_epoch": 69575,
        "meta_bstar": 0.00019559,
        "meta_mean_motion_dot": 1.277e-05,
        "meta_mean_motion_ddot": 0,
        "tle_line1": "1 39030U 12073A   25338.17074477  .00001277  00000+0  19559-3 0  9994",
        "tle_line2": "2 39030  97.6899 180.2455 0000810  96.4782 263.6520 14.75273119695751"
      },
      "geometry": {
        "type": "Point",
        "coordinates": [
          0.48200773921761486,
          0.08091836641740659
        ]
      }
    },
    {
      "type": "Feature",
      "properties": {
        "norad_id": 39084,
        "name": "LANDSAT 8",
        "group": "resource",
        "lat": -41.05984341662453,
        "lon": 53.82778421231154,
        "alt_km": 709.4924053499262,
        "timestamp": "2025-12-04T09:47:37.179620+00:00",
        "meta_object_name": "LANDSAT 8",
        "meta_object_id": "2013-008A",
        "meta_epoch": "2025-12-03T20:47:58.990272",
        "meta_mean_motion": 14.57126913,
        "meta_eccentricity": 0.00010671,
        "meta_inclination": 98.2083,
        "meta_ra_of_asc_node": 46.0707,
        "meta_arg_of_pericenter": 88.8861,
        "meta_mean_anomaly": 271.2459,
        "meta_ephemeris_type": 0,
        "meta_classification_type": "U",
        "meta_norad_cat_id": 39084,
        "meta_element_set_no": 999,
        "meta_rev_at_epoch": 66945,
        "meta_bstar": 0.00020082125,
        "meta_mean_motion_dot": 8.6e-06,
        "meta_mean_motion_ddot": 0,
        "tle_line1": "1 39084U 13008A   25337.86665498  .00000860  00000+0  20082-3 0  9996",
        "tle_line2": "2 39084  98.2083  46.0707 0001067  88.8861 271.2459 14.57126913669452"
      },
      "geometry": {
        "type": "Point",
        "coordinates": [
          53.82778421231154,
          -41.05984341662453
        ]
      }
    },
    {
      "type": "Feature",
      "properties": {
        "norad_id": 39086,
        "name": "SARAL",
        "group": "resource",
        "lat": -46.0473700781057,
        "lon": 171.4249879928186,
        "alt_km": 791.1462603617474,
        "timestamp": "2025-12-04T09:47:37.179630+00:00",
        "meta_object_name": "SARAL",
        "meta_object_id": "2013-009A",
        "meta_epoch": "2025-12-03T22:16:44.445216",
        "meta_mean_motion": 14.32752386,
        "meta_eccentricity": 0.00026432,
        "meta_inclination": 98.5507,
        "meta_ra_of_asc_node": 161.9736,
        "meta_arg_of_pericenter": 125.5358,
        "meta_mean_anomaly": 234.6073,
        "meta_ephemeris_type": 0,
        "meta_classification_type": "U",
        "meta_norad_cat_id": 39086,
        "meta_element_set_no": 999,
        "meta_rev_at_epoch": 66764,
        "meta_bstar": 0.0001227279,
        "meta_mean_motion_dot": 2.91e-06,
        "meta_mean_motion_ddot": 0,
        "tle_line1": "1 39086U 13009A   25337.92829219  .00000291  00000+0  12273-3 0  9990",
        "tle_line2": "2 39086  98.5507 161.9736 0002643 125.5358 234.6073 14.32752386667644"
      },
      "geometry": {
        "type": "Point",
        "coordinates": [
          171.4249879928186,
          -46.0473700781057
        ]
      }
    },
    {
      "type": "Feature",
      "properties": {
        "norad_id": 39150,
        "name": "GAOFEN-1",
        "group": "resource",
        "lat": -40.276889606489995,
        "lon": -137.57217841942384,
        "alt_km": 639.1698561028825,
        "timestamp": "2025-12-04T09:47:37.179640+00:00",
        "meta_object_name": "GAOFEN-1",
        "meta_object_id": "2013-018A",
        "meta_epoch": "2025-12-03T23:02:22.407648",
        "meta_mean_motion": 14.76509816,
        "meta_eccentricity": 0.00176749,
        "meta_inclination": 97.9337,
        "meta_ra_of_asc_node": 48.7741,
        "meta_arg_of_pericenter": 170.5695,
        "meta_mean_anomaly": 189.585,
        "meta_ephemeris_type": 0,
        "meta_classification_type": "U",
        "meta_norad_cat_id": 39150,
        "meta_element_set_no": 999,
        "meta_rev_at_epoch": 67943,
        "meta_bstar": 0.00023225791,
        "meta_mean_motion_dot": 1.571e-05,
        "meta_mean_motion_ddot": 0,
        "tle_line1": "1 39150U 13018A   25337.95998157  .00001571  00000+0  23226-3 0  9995",
        "tle_line2": "2 39150  97.9337  48.7741 0017674 170.5695 189.5850 14.76509816679439"
      },
      "geometry": {
        "type": "Point",
        "coordinates": [
          -137.57217841942384,
          -40.276889606489995
        ]
      }
    }
  ]
}